NORAD_CAT_ID,OBJECT_NAME,OBJECT_TYPE,EPOCH,MEAN_MOTION,ECCENTRICITY,INCLINATION,RA_OF_ASC_NODE,ARG_OF_PERICENTER,MEAN_ANOMALY,BSTAR,MEAN_MOTION_DOT,MEAN_MOTION_DDOT,TLE_LINE0,TLE_LINE1,TLE_LINE2,SEMIMAJOR_AXIS,PERIOD,APOGEE,PERIGEE,DECAYED
53392.0,STARLINK-4535,PAYLOAD,2023-06-11 11:49:33,15.08837889,8.98e-05,53.2167,303.1565,74.6482,285.461,5.7675e-05,6.3e-06,0.0,0 STARLINK-4535,1 53392U 22097E   23162.49274572  .00000630  00000-0  57675-4 0  9999,2 53392  53.2167 303.1565 0000898  74.6482 285.4610 15.08837889 47371,6917.887,95.438,540.373,539.131,0.0
53392.0,STARLINK-4535,PAYLOAD,2023-06-11 18:11:05,15.08845969,9.42e-05,53.2157,301.9668,80.2263,279.8835,5.5534e-05,5.96e-06,0.0,0 STARLINK-4535,1 53392U 22097E   23162.75770070  .00000596  00000-0  55534-4 0  9995,2 53392  53.2157 301.9668 0000942  80.2263 279.8835 15.08845969 47419,6917.862,95.437,540.379,539.075,0.0
53392.0,STARLINK-4535,PAYLOAD,2023-06-13 01:58:48,15.08842142,7.68e-05,53.2168,296.0187,90.3652,269.7428,7.4818e-05,9.03e-06,0.0,0 STARLINK-4535,1 53392U 22097E   23164.08250261  .00000903  00000-0  74818-4 0  9996,2 53392  53.2168 296.0187 0000768  90.3652 269.7428 15.08842142 46966,6917.874,95.437,540.27,539.208,0.0
53392.0,STARLINK-4535,PAYLOAD,2023-06-13 11:31:07,15.08833868,8.96e-05,53.2163,294.2353,93.1238,266.9857,1.1887e-05,-9.9e-07,0.0,0 STARLINK-4535,1 53392U 22097E   23164.47994811 -.00000099  00000-0  11887-4 0  9999,2 53392  53.2163 294.2353 0000896  93.1238 266.9857 15.08833868 47027,6917.899,95.438,540.384,539.144,0.0
53392.0,STARLINK-4535,PAYLOAD,2023-06-13 17:52:39,15.08842088,8.1e-05,53.218,293.0437,92.7455,267.363,3.4435e-05,2.6e-06,0.0,0 STARLINK-4535,1 53392U 22097E   23164.74490664  .00000260  00000-0  34435-4 0  9999,2 53392  53.2180 293.0437 0000810  92.7455 267.3630 15.08842088 47712,6917.874,95.437,540.299,539.179,0.0
53392.0,STARLINK-4535,PAYLOAD,2023-06-14 01:49:35,15.08844327,7.9e-05,53.2176,291.5584,80.4552,279.653,3.1595e-05,2.15e-06,0.0,0 STARLINK-4535,1 53392U 22097E   23165.07610408  .00000215  00000-0  31595-4 0  9990,2 53392  53.2176 291.5584 0000790  80.4552 279.6530 15.08844327 47119,6917.867,95.437,540.279,539.186,0.0
53392.0,STARLINK-4535,PAYLOAD,2023-06-14 08:11:08,15.08842474,8.77e-05,53.2179,290.3696,80.3697,279.7395,5.2921e-05,5.55e-06,0.0,0 STARLINK-4535,1 53392U 22097E   23165.34106718  .00000555  00000-0  52921-4 0  9997,2 53392  53.2179 290.3696 0000877  80.3697 279.7395 15.08842474 47805,6917.873,95.437,540.345,539.131,0.0
53392.0,STARLINK-4535,PAYLOAD,2023-06-14 17:43:26,15.08847238,8.93e-05,53.2172,288.587,78.4905,281.6188,8.3709e-05,1.045e-05,0.0,0 STARLINK-4535,1 53392U 22097E   23165.73850233  .00001045  00000-0  83709-4 0  9991,2 53392  53.2172 288.5870 0000893  78.4905 281.6188 15.08847238 47860,6917.858,95.437,540.341,539.106,0.0
53392.0,STARLINK-4535,PAYLOAD,2023-06-15 01:40:22,15.08838697,0.0001065,53.2171,287.0993,76.45,283.661,5.3685e-05,5.67e-06,0.0,0 STARLINK-4535,1 53392U 22097E   23166.06970874  .00000567  00000-0  53685-4 0  9990,2 53392  53.2171 287.0993 0001065  76.4500 283.6610 15.08838697 47265,6917.884,95.438,540.486,539.013,0.0
53392.0,STARLINK-4535,PAYLOAD,2023-06-15 12:48:05,15.08834761,9.12e-05,53.2173,285.0188,73.2112,286.898,7.7728e-05,9.49e-06,0.0,0 STARLINK-4535,1 53392U 22097E   23166.53339137  .00000949  00000-0  77728-4 0  9991,2 53392  53.2173 285.0188 0000912  73.2112 286.8980 15.08834761 47987,6917.896,95.438,540.392,539.13,0.0
53392.0,STARLINK-4535,PAYLOAD,2023-06-15 14:23:28,15.08837274,0.0001139,53.2174,284.7218,61.9857,298.125,5.7062e-05,6.2e-06,0.0,0 STARLINK-4535,1 53392U 22097E   23166.59963127  .00000620  00000-0  57062-4 0  9994,2 53392  53.2174 284.7218 0001139  61.9857 298.1250 15.08837274 47999,6917.889,95.438,540.542,538.966,0.0
53392.0,STARLINK-4535,PAYLOAD,2023-06-16 07:52:41,15.08848087,0.0001213,53.2163,281.4487,76.7771,283.3356,7.5917e-05,9.21e-06,0.0,0 STARLINK-4535,1 53392U 22097E   23167.32826256  .00000921  00000-0  75917-4 0  9990,2 53392  53.2163 281.4487 0001213  76.7771 283.3356 15.08848087 47459,6917.856,95.437,540.56,538.882,0.0
53392.0,STARLINK-4535,PAYLOAD,2023-06-16 14:14:13,15.08854721,8.23e-05,53.2178,280.2589,86.4049,273.7037,0.00022249,3.256e-05,0.0,0 STARLINK-4535,1 53392U 22097E   23167.59321336  .00003256  00000-0  22249-3 0  9991,2 53392  53.2178 280.2589 0000823  86.4049 273.7037 15.08854721 48145,6917.835,95.437,540.27,539.131,0.0
53392.0,STARLINK-4535,PAYLOAD,2023-06-16 17:24:59,15.08863296,0.0001081,53.2168,279.6633,95.5154,264.5961,0.00022461,3.291e-05,0.0,0 STARLINK-4535,1 53392U 22097E   23167.72569306  .00003291  00000-0  22461-3 0  9992,2 53392  53.2168 279.6633 0001081  95.5154 264.5961 15.08863296 48164,6917.809,95.436,540.422,538.926,0.0
53392.0,STARLINK-4535,PAYLOAD,2023-06-17 07:43:29,15.08826821,6.73e-05,53.2171,276.9878,99.0919,261.0149,-0.0001017,-1.905e-05,0.0,0 STARLINK-4535,1 53392U 22097E   23168.32187296 -.00001905  00000-0 -10170-3 0  9999,2 53392  53.2171 276.9878 0000673  99.0919 261.0149 15.08826821 47604,6917.921,95.438,540.251,539.32,0.0
53392.0,STARLINK-4535,PAYLOAD,2023-06-17 17:15:48,15.08826502,9.73e-05,53.2174,275.2036,103.7143,256.3958,-0.00016536,-2.917e-05,0.0,0 STARLINK-4535,1 53392U 22097E   23168.71931425 -.00002917  00000-0 -16536-3 0  9999,2 53392  53.2174 275.2036 0000973 103.7143 256.3958 15.08826502 48310,6917.922,95.438,540.46,539.114,0.0
53392.0,STARLINK-4535,PAYLOAD,2023-06-18 05:58:53,15.08835102,7.96e-05,53.2171,272.8244,100.0654,260.0428,0.0001037,1.363e-05,0.0,0 STARLINK-4535,1 53392U 22097E   23169.24923447  .00001363  00000-0  10370-3 0  9995,2 53392  53.2171 272.8244 0000796 100.0654 260.0428 15.08835102 47747,6917.895,95.438,540.311,539.21,0.0
53392.0,STARLINK-4535,PAYLOAD,2023-06-18 13:55:49,15.08845855,7.9e-05,53.217,271.3383,101.2356,258.8724,0.00043732,6.68e-05,0.0,0 STARLINK-4535,1 53392U 22097E   23169.58043261  .00006680  00000-0  43732-3 0  9994,2 53392  53.2170 271.3383 0000790 101.2356 258.8724 15.08845855 47795,6917.862,95.437,540.274,539.181,0.0
53392.0,STARLINK-4535,PAYLOAD,2023-06-19 07:25:04,15.08842494,7.89e-05,53.2165,268.0674,95.7252,264.3831,0.00017715,2.533e-05,0.0,0 STARLINK-4535,1 53392U 22097E   23170.30907424  .00002533  00000-0  17715-3 0  9991,2 53392  53.2165 268.0674 0000789  95.7252 264.3831 15.08842494 47905,6917.873,95.437,540.284,539.192,0.0
53392.0,STARLINK-4535,PAYLOAD,2023-06-19 13:46:36,15.08846387,8.4e-05,53.2172,266.8791,100.2556,259.8531,0.00027494,4.091e-05,0.0,0 STARLINK-4535,1 53392U 22097E   23170.57403278  .00004091  00000-0  27494-3 0  9994,2 53392  53.2172 266.8791 0000840 100.2556 259.8531 15.08846387 48593,6917.861,95.437,540.307,539.145,0.0
53392.0,STARLINK-4535,PAYLOAD,2023-06-20 07:15:51,15.08839225,7.55e-05,53.2165,263.6081,99.2334,260.8743,-3.3098e-06,-3.4e-06,0.0,0 STARLINK-4535,1 53392U 22097E   23171.30267396 -.00000340  00000-0 -33098-5 0  9999,2 53392  53.2165 263.6081 0000755  99.2334 260.8743 15.08839225 48059,6917.883,95.438,540.27,539.225,0.0
53392.0,STARLINK-4535,PAYLOAD,2023-06-20 15:12:46,15.08846787,6.68e-05,53.2156,262.1205,87.1767,272.9302,0.00013602,1.878e-05,0.0,0 STARLINK-4535,1 53392U 22097E   23171.63387083  .00001878  00000-0  13602-3 0  9993,2 53392  53.2156 262.1205 0000668  87.1767 272.9302 15.08846787 48753,6917.86,95.437,540.187,539.263,0.0
53392.0,STARLINK-4535,PAYLOAD,2023-06-21 11:52:47,15.08844757,7.46e-05,53.2154,258.2544,84.1249,275.9828,8.885e-05,1.127e-05,0.0,0 STARLINK-4535,1 53392U 22097E   23172.49499256  .00001127  00000-0  88850-4 0  9999,2 53392  53.2154 258.2544 0000746  84.1249 275.9828 15.08844757 48236,6917.866,95.437,540.247,539.215,0.0
53392.0,STARLINK-4535,PAYLOAD,2023-06-21 13:28:10,15.08846513,7.63e-05,53.2155,257.957,80.3643,279.7435,0.0001246,1.696e-05,0.0,0 STARLINK-4535,1 53392U 22097E   23172.56123170  .00001696  00000-0  12460-3 0  9990,2 53392  53.2155 257.9570 0000763  80.3643 279.7435 15.08846513 48897,6917.86,95.437,540.253,539.198,0.0
53392.0,STARLINK-4535,PAYLOAD,2023-06-22 10:08:11,15.08840892,6.83e-05,53.216,254.091,94.9296,265.1774,4.619e-05,4.48e-06,0.0,0 STARLINK-4535,1 53392U 22097E   23173.42235461  .00000448  00000-0  46190-4 0  9995,2 53392  53.2160 254.0910 0000683  94.9296 265.1774 15.08840892 48377,6917.878,95.437,540.215,539.27,0.0
53392.0,STARLINK-4535,PAYLOAD,2023-06-23 11:34:21,15.08848477,8.56e-05,53.2158,249.3313,111.1188,248.9896,0.00019494,2.817e-05,0.0,0 STARLINK-4535,1 53392U 22097E   23174.48219026  .00002817  00000-0  19494-3 0  9999,2 53392  53.2158 249.3313 0000856 111.1188 248.9896 15.08848477 48531,6917.854,95.437,540.312,539.127,0.0
53392.0,STARLINK-4535,PAYLOAD,2023-06-24 08:14:22,15.08839817,0.0001037,53.2153,245.4635,111.4479,248.6624,9.9279e-05,1.293e-05,0.0,0 STARLINK-4535,1 53392U 22097E   23175.34331496  .00001293  00000-0  99279-4 0  9998,2 53392  53.2153 245.4635 0001037 111.4479 248.6624 15.08839817 48666,6917.881,95.438,540.463,539.029,0.0
53392.0,STARLINK-4535,PAYLOAD,2023-06-25 09:40:32,15.08842433,8.35e-05,53.2153,240.7074,109.4038,250.7044,0.00015478,2.177e-05,0.0,0 STARLINK-4535,1 53392U 22097E   23176.40315341  .00002177  00000-0  15478-3 0  9997,2 53392  53.2153 240.7074 0000835 109.4038 250.7044 15.08842433 48820,6917.873,95.437,540.316,539.16,0.0
53392.0,STARLINK-4535,PAYLOAD,2023-06-26 09:31:19,15.08837131,9.33e-05,53.2152,236.2496,91.6344,268.4755,6.9619e-05,8.2e-06,0.0,0 STARLINK-4535,1 53392U 22097E   23177.39675858  .00000820  00000-0  69619-4 0  9998,2 53392  53.2152 236.2496 0000933  91.6344 268.4755 15.08837131 48978,6917.889,95.438,540.4,539.109,0.0
53392.0,STARLINK-4535,PAYLOAD,2023-06-27 10:57:30,15.08838257,9.85e-05,53.2157,231.4929,98.2946,261.8158,6.4534e-05,7.39e-06,0.0,0 STARLINK-4535,1 53392U 22097E   23178.45659971  .00000739  00000-0  64534-4 0  9994,2 53392  53.2157 231.4929 0000985  98.2946 261.8158 15.08838257 49132,6917.886,95.438,540.432,539.069,0.0
